NORAD_CAT_ID,OBJECT_NAME,OBJECT_TYPE,EPOCH,MEAN_MOTION,ECCENTRICITY,INCLINATION,RA_OF_ASC_NODE,ARG_OF_PERICENTER,MEAN_ANOMALY,BSTAR,MEAN_MOTION_DOT,MEAN_MOTION_DDOT,TLE_LINE0,TLE_LINE1,TLE_LINE2,SEMIMAJOR_AXIS,PERIOD,APOGEE,PERIGEE,DECAYED
52862.0,STARLINK-4010,PAYLOAD,2023-09-12 20:38:20,15.08844045,0.0001117,53.2155,144.0165,91.7411,268.3709,0.00016471,2.335e-05,0.0,0 STARLINK-4010,1 52862U 22062AJ  23255.85996213  .00002335  00000-0  16471-3 0  9990,2 52862  53.2155 144.0165 0001117  91.7411 268.3709 15.08844045 68727,6917.868,95.437,540.506,538.96,0.0
52862.0,STARLINK-4010,PAYLOAD,2023-09-13 02:59:52,15.08861462,0.0001294,53.2161,142.8252,104.7009,255.4126,0.00047623,7.304e-05,0.0,0 STARLINK-4010,1 52862U 22062AJ  23256.12491484  .00007304  00000-0  47623-3 0  9995,2 52862  53.2161 142.8252 0001294 104.7009 255.4126 15.08861462 69252,6917.815,95.436,540.575,538.785,0.0
52862.0,STARLINK-4010,PAYLOAD,2023-09-13 22:04:30,15.08841467,0.0001647,53.2191,139.2616,91.9685,268.1496,-2.6902e-05,-7.16e-06,0.0,0 STARLINK-4010,1 52862U 22062AJ  23256.91979888 -.00000716  00000-0 -26902-4 0  9991,2 52862  53.2191 139.2616 0001647  91.9685 268.1496 15.08841467 68880,6917.876,95.437,540.88,538.602,0.0
52862.0,STARLINK-4010,PAYLOAD,2023-09-14 02:50:39,15.08853159,0.0001224,53.2166,138.3666,102.8781,257.2348,0.00013362,1.84e-05,0.0,0 STARLINK-4010,1 52862U 22062AJ  23257.11851177  .00001840  00000-0  13362-3 0  9996,2 52862  53.2166 138.3666 0001224 102.8781 257.2348 15.08853159 69402,6917.84,95.437,540.552,538.858,0.0
52862.0,STARLINK-4010,PAYLOAD,2023-09-14 15:33:45,15.08829286,0.0001244,53.216,135.9866,96.8439,263.2695,-0.00015745,-2.792e-05,0.0,0 STARLINK-4010,1 52862U 22062AJ  23257.64844510 -.00002792  00000-0 -15745-3 0  9993,2 52862  53.2160 135.9866 0001244  96.8439 263.2695 15.08829286 69489,6917.913,95.438,540.639,538.918,0.0
52862.0,STARLINK-4010,PAYLOAD,2023-09-14 20:19:55,15.08829685,0.0001449,53.2165,135.095,100.1606,259.9549,-0.00014106,-2.532e-05,0.0,0 STARLINK-4010,1 52862U 22062AJ  23257.84716540 -.00002532  00000-0 -14106-3 0  9998,2 52862  53.2165 135.0950 0001449 100.1606 259.9549 15.08829685 69024,6917.912,95.438,540.779,538.775,0.0
52862.0,STARLINK-4010,PAYLOAD,2023-09-14 23:30:41,15.08831299,0.0001283,53.216,134.5007,88.5543,271.5596,-4.1733e-05,-9.52e-06,0.0,0 STARLINK-4010,1 52862U 22062AJ  23257.97964740 -.00000952  00000-0 -41733-4 0  9990,2 52862  53.2160 134.5007 0001283  88.5543 271.5596 15.08831299 69049,6917.907,95.438,540.66,538.884,0.0
52862.0,STARLINK-4010,PAYLOAD,2023-09-16 00:56:51,15.08859895,0.0001302,53.2158,129.7424,84.7013,275.4127,0.00073102,0.00011372,0.0,0 STARLINK-4010,1 52862U 22062AJ  23259.03948221  .00011372  00000-0  73102-3 0  9995,2 52862  53.2158 129.7424 0001302  84.7013 275.4127 15.08859895 69693,6917.82,95.436,540.585,538.784,0.0
52862.0,STARLINK-4010,PAYLOAD,2023-09-16 15:15:20,15.08842777,0.0001404,53.2153,127.0669,73.982,286.1327,0.00021733,3.173e-05,0.0,0 STARLINK-4010,1 52862U 22062AJ  23259.63564868  .00003173  00000-0  21733-3 0  9995,2 52862  53.2153 127.0669 0001404  73.9820 286.1327 15.08842777 69781,6917.872,95.437,540.708,538.766,0.0
52862.0,STARLINK-4010,PAYLOAD,2023-09-17 00:47:38,15.08842854,0.0001315,53.2151,125.2818,71.8855,288.228,0.000502,7.711e-05,0.0,0 STARLINK-4010,1 52862U 22062AJ  23260.03308946  .00007711  00000-0  50200-3 0  9997,2 52862  53.2151 125.2818 0001315  71.8855 288.2280 15.08842854 69351,6917.872,95.437,540.646,538.827,0.0
52862.0,STARLINK-4010,PAYLOAD,2023-09-17 18:16:53,15.08852391,0.0001385,53.2153,122.0102,71.8501,288.2642,0.00084875,0.0001325,0.0,0 STARLINK-4010,1 52862U 22062AJ  23260.76172958  .00013250  00000-0  84875-3 0  9999,2 52862  53.2153 122.0102 0001385  71.8501 288.2642 15.08852391 69954,6917.843,95.437,540.666,538.749,0.0
52862.0,STARLINK-4010,PAYLOAD,2023-09-18 00:38:25,15.0885826,0.0001424,53.2161,120.8204,78.2904,281.8248,0.00078242,0.00012192,0.0,0 STARLINK-4010,1 52862U 22062AJ  23261.02668674  .00012192  00000-0  78242-3 0  9999,2 52862  53.2161 120.8204 0001424  78.2904 281.8248 15.08858260 69507,6917.825,95.436,540.675,538.704,0.0
52862.0,STARLINK-4010,PAYLOAD,2023-09-18 18:07:40,15.08839897,0.0001288,53.216,117.548,74.311,285.8024,0.00023049,3.382e-05,0.0,0 STARLINK-4010,1 52862U 22062AJ  23261.75533321  .00003382  00000-0  23049-3 0  9995,2 52862  53.2160 117.5480 0001288  74.3110 285.8024 15.08839897 70108,6917.881,95.438,540.637,538.855,0.0
52862.0,STARLINK-4010,PAYLOAD,2023-09-18 21:18:27,15.0882613,0.0001347,53.2159,116.9543,88.1685,271.9461,-0.00020054,-3.477e-05,0.0,0 STARLINK-4010,1 52862U 22062AJ  23261.88781526 -.00003477  00000-0 -20054-3 0  9991,2 52862  53.2159 116.9543 0001347  88.1685 271.9461 15.08826130 69638,6917.923,95.438,540.72,538.856,0.0
52862.0,STARLINK-4010,PAYLOAD,2023-09-19 17:58:28,15.08853674,0.0001229,53.2157,113.0885,93.4269,266.6864,0.0013793,0.0002174,0.0,0 STARLINK-4010,1 52862U 22062AJ  23262.74893749  .00021740  00000-0  13793-2 0  9990,2 52862  53.2157 113.0885 0001229  93.4269 266.6864 15.08853674 70250,6917.839,95.437,540.554,538.853,0.0
52862.0,STARLINK-4010,PAYLOAD,2023-09-20 00:20:00,15.08872234,0.000127,53.2156,111.8994,92.9337,267.1801,0.0014597,0.0002304,0.0,0 STARLINK-4010,1 52862U 22062AJ  23263.01389235  .00023040  00000-0  14597-2 0  9999,2 52862  53.2156 111.8994 0001270  92.9337 267.1801 15.08872234 69801,6917.782,95.436,540.525,538.768,0.0
52862.0,STARLINK-4010,PAYLOAD,2023-09-20 17:49:15,15.0884703,0.0001394,53.2158,108.6287,103.9816,256.1331,0.0009868,0.00015455,0.0,0 STARLINK-4010,1 52862U 22062AJ  23263.74253612  .00015455  00000-0  98680-3 0  9995,2 52862  53.2158 108.6287 0001394 103.9816 256.1331 15.08847030 70404,6917.859,95.437,540.688,538.76,0.0
52862.0,STARLINK-4010,PAYLOAD,2023-09-20 21:00:01,15.08839771,0.00013,53.2155,108.0335,101.8532,258.2606,0.00079506,0.00012388,0.0,0 STARLINK-4010,1 52862U 22062AJ  23263.87501716  .00012388  00000-0  79506-3 0  9998,2 52862  53.2155 108.0335 0001300 101.8532 258.2606 15.08839771 69935,6917.881,95.438,540.645,538.847,0.0
52862.0,STARLINK-4010,PAYLOAD,2023-09-21 17:40:02,15.08846826,0.0001267,53.2151,104.1672,99.3075,260.806,0.0006005,9.284e-05,0.0,0 STARLINK-4010,1 52862U 22062AJ  23264.73613654  .00009284  00000-0  60050-3 0  9994,2 52862  53.2151 104.1672 0001267  99.3075 260.8060 15.08846826 70559,6917.86,95.437,540.601,538.848,0.0
52862.0,STARLINK-4010,PAYLOAD,2023-09-22 12:44:39,15.08849916,0.0001265,53.2149,100.6002,83.6758,276.4378,0.00032253,4.85e-05,0.0,0 STARLINK-4010,1 52862U 22062AJ  23265.53101371  .00004850  00000-0  32253-3 0  9999,2 52862  53.2149 100.6002 0001265  83.6758 276.4378 15.08849916 70183,6917.85,95.437,540.59,538.84,0.0
52862.0,STARLINK-4010,PAYLOAD,2023-09-22 17:30:49,15.08847936,0.0001264,53.2152,99.7077,78.3458,281.7676,0.00024852,3.67e-05,0.0,0 STARLINK-4010,1 52862U 22062AJ  23265.72973425  .00003670  00000-0  24852-3 0  9992,2 52862  53.2152  99.7077 0001264  78.3458 281.7676 15.08847936 70702,6917.856,95.437,540.596,538.847,0.0
52862.0,STARLINK-4010,PAYLOAD,2023-09-22 20:41:35,15.08850337,0.0001276,53.2154,99.1129,78.2657,281.8478,0.00028694,4.283e-05,0.0,0 STARLINK-4010,1 52862U 22062AJ  23265.86221336  .00004283  00000-0  28694-3 0  9993,2 52862  53.2154  99.1129 0001276  78.2657 281.8478 15.08850337 70237,6917.849,95.437,540.597,538.831,0.0
52862.0,STARLINK-4010,PAYLOAD,2023-09-23 12:35:26,15.08838133,0.0001349,53.216,96.1401,81.8422,278.2723,0.0002543,3.761e-05,0.0,0 STARLINK-4010,1 52862U 22062AJ  23266.52461714  .00003761  00000-0  25430-3 0  9998,2 52862  53.2160  96.1401 0001349  81.8422 278.2723 15.08838133 70823,6917.886,95.438,540.684,538.818,0.0
52862.0,STARLINK-4010,PAYLOAD,2023-09-23 22:07:45,15.08847616,0.0001326,53.2157,94.3543,86.5597,273.5546,7.8407e-05,9.6e-06,0.0,0 STARLINK-4010,1 52862U 22062AJ  23266.92205206  .00000960  00000-0  78407-4 0  9995,2 52862  53.2157  94.3543 0001326  86.5597 273.5546 15.08847616 70395,6917.857,95.437,540.639,538.805,0.0
52862.0,STARLINK-4010,PAYLOAD,2023-09-24 18:47:45,15.08848929,0.0001309,53.2168,90.4871,94.2088,265.9054,7.6937e-05,9.37e-06,0.0,0 STARLINK-4010,1 52862U 22062AJ  23267.78316971  .00000937  00000-0  76937-4 0  9992,2 52862  53.2168  90.4871 0001309  94.2088 265.9054 15.08848929 71017,6917.853,95.437,540.624,538.813,0.0
52862.0,STARLINK-4010,PAYLOAD,2023-09-25 12:17:01,15.08830091,0.0001361,53.2168,87.2165,90.6773,269.4375,0.00024259,3.574e-05,0.0,0 STARLINK-4010,1 52862U 22062AJ  23268.51181833  .00003574  00000-0  24259-3 0  9990,2 52862  53.2168  87.2165 0001361  90.6773 269.4375 15.08830091 70639,6917.911,95.438,540.717,538.834,0.0
52862.0,STARLINK-4010,PAYLOAD,2023-09-25 18:38:32,15.08846033,0.0001245,53.2167,86.0277,81.4034,278.7099,7.2675e-05,8.69e-06,0.0,0 STARLINK-4010,1 52862U 22062AJ  23268.77677059  .00000869  00000-0  72675-4 0  9998,2 52862  53.2167  86.0277 0001245  81.4034 278.7099 15.08846033 70671,6917.862,95.437,540.588,538.866,0.0
52862.0,STARLINK-4010,PAYLOAD,2023-09-25 18:38:33,15.08841804,0.0001215,53.2167,86.0277,81.2701,278.8429,0.00012983,1.779e-05,0.0,0 STARLINK-4010,1 52862U 22062AJ  23268.77677227  .00001779  00000-0  12983-3 0  9991,2 52862  53.2167  86.0277 0001215  81.2701 278.8429 15.08841804 71161,6917.875,95.437,540.58,538.899,0.0
52862.0,STARLINK-4010,PAYLOAD,2023-09-26 16:53:58,15.08833901,0.0001309,53.2162,81.8654,78.5968,281.5171,-6.4897e-05,-1.32e-05,0.0,0 STARLINK-4010,1 52862U 22062AJ  23269.70414398 -.00001320  00000-0 -64897-4 0  9999,2 52862  53.2162  81.8654 0001309  78.5968 281.5171 15.08833901 71306,6917.899,95.438,540.67,538.858,0.0
52862.0,STARLINK-4010,PAYLOAD,2023-09-26 18:29:21,15.08834748,0.0001311,53.2164,81.5679,78.5297,281.5842,-4.1967e-05,-9.56e-06,0.0,0 STARLINK-4010,1 52862U 22062AJ  23269.77038283 -.00000956  00000-0 -41967-4 0  9998,2 52862  53.2164  81.5679 0001311  78.5297 281.5842 15.08834748 70821,6917.896,95.438,540.668,538.855,0.0
